[{"OBJECT_NAME":"STARLINK-3129","OBJECT_ID":"2021-104AX","EPOCH":"2026-03-09T16:20:11.975424","MEAN_MOTION":15.08844076,"ECCENTRICITY":0.00011327,"INCLINATION":53.2176,"RA_OF_ASC_NODE":219.2491,"ARG_OF_PERICENTER":81.7118,"MEAN_ANOMALY":278.4002,"EPHEMERIS_TYPE":0,"CLASSIFICATION_TYPE":"U","NORAD_CAT_ID":49453,"ELEMENT_SET_NO":999,"REV_AT_EPOCH":23877,"BSTAR":-3.1337388e-5,"MEAN_MOTION_DOT":-7.87e-6,"MEAN_MOTION_DDOT":0},{"OBJECT_NAME":"TITAN 34B AGENA D DEB","OBJECT_ID":"1983-078D","EPOCH":"2026-03-06T23:48:12.769344","MEAN_MOTION":7.15581812,"ECCENTRICITY":0.3926858,"INCLINATION":63.6108,"RA_OF_ASC_NODE":310.1454,"ARG_OF_PERICENTER":241.4177,"MEAN_ANOMALY":73.7863,"EPHEMERIS_TYPE":0,"CLASSIFICATION_TYPE":"U","NORAD_CAT_ID":23812,"ELEMENT_SET_NO":999,"REV_AT_EPOCH":17583,"BSTAR":0.00020855509,"MEAN_MOTION_DOT":1.48e-6,"MEAN_MOTION_DDOT":0}]
